0 COSMOS 1220 DEB
1 25795U 80089CJ  13283.15821713  .00002946  00000-0  22375-3 0  4705
2 25795 064.9843 048.7449 0118432 292.4844 125.4797 14.98821214872408
0 COSMOS 1220 DEB
1 25795U 80089CJ  13283.54761685  .00001890  00000-0  13467-3 0  4719
2 25795 064.9843 047.5357 0117892 291.7583 067.1546 14.98816994872463
0 COSMOS 1220 DEB
1 25795U 80089CJ  13287.16276399  .00003272  00000-0  24676-3 0  4725
2 25795 064.9852 036.2435 0118619 291.1524 132.9263 14.98840069873000
0 COSMOS 1220 DEB
1 25795U 80089CJ  13289.16667881  .00004368  00000-0  32452-3 0  4736
2 25795 064.9857 029.9893 0118644 290.4304 145.6874 14.98857321873309
0 COSMOS 1220 DEB
1 25795U 80089CJ  13291.16830122  .00003752  00000-0  28061-3 0  4747
2 25795 064.9858 023.7412 0118682 289.7860 146.1144 14.98871360873607
0 COSMOS 1220 DEB
1 25795U 80089CJ  13293.17126727  .00004064  00000-0  30264-3 0  4755
2 25795 064.9854 017.4885 0118782 289.0961 153.9396 14.98884025873903
0 COSMOS 1220 DEB
1 25795U 80089CJ  13295.17386647  .00004335  00000-0  32173-3 0  4769
2 25795 064.9850 011.2363 0118804 288.4394 159.8516 14.98898896874204
